SKYSAT-A                
1 39418U 13066C   26062.94531151  .00005303  00000+0  30841-3 0  9995
2 39418  97.3965 115.6670 0020548 321.6008  38.3759 15.12303465672573
SKYSAT-B                
1 40072U 14037D   26062.81083700  .00002796  00000+0  31362-3 0  9992
2 40072  98.3720  15.8691 0004201 258.6689 101.4054 14.87697185630296
SKYSAT-C1               
1 41601U 16040C   26062.63605399  .00012726  00000+0  38437-3 0  9995
2 41601  96.9705 100.1375 0003961  65.3979 294.7678 15.34362051541671
SKYSAT-C4               
1 41771U 16058B   26062.95678928  .00022383  00000+0  47367-3 0  9997
2 41771  96.9287  89.3204 0000881  84.0805 276.0546 15.45132819529208
SKYSAT-C5               
1 41772U 16058C   26062.69468506  .00011413  00000+0  34742-3 0  9993
2 41772  97.0624 108.0178 0001889  85.7555 274.3905 15.34150166527575
SKYSAT-C2               
1 41773U 16058D   26062.59883458  .00016092  00000+0  41141-3 0  9999
2 41773  97.0281  88.7915 0005303  81.4883 278.6964 15.39503714528793
SKYSAT-C3               
1 41774U 16058E   26062.61160719  .00026407  00000+0  50606-3 0  9998
2 41774  96.9184  97.7412 0001508 101.3682 258.7739 15.47994897529759
SKYSAT-C11              
1 42987U 17068A   26062.39879566  .00034675  00000+0  57785-3 0  9990
2 42987  97.4187 207.1776 0000752  86.5462 273.5877 15.51927516466808
SKYSAT-C10              
1 42988U 17068B   26062.33327470  .00013622  00000+0  43642-3 0  9993
2 42988  97.4325 198.4163 0001159  90.6134 269.5240 15.32490656466133
SKYSAT-C9               
1 42989U 17068C   26062.79543135  .00020845  00000+0  54646-3 0  9993
2 42989  97.4252 198.8673 0009682 152.1934 207.9831 15.38655720466531
SKYSAT-C8               
1 42990U 17068D   26062.32629177  .00006617  00000+0  20005-3 0  9998
2 42990  97.4350 197.8254 0001258 113.2685 246.8690 15.34560506466064
SKYSAT-C7               
1 42991U 17068E   26062.83784106  .00017270  00000+0  51767-3 0  9995
2 42991  97.4356 199.3239 0007382 121.7201 238.4762 15.34530913466205
SKYSAT-C6               
1 42992U 17068F   26062.82601346  .00015348  00000+0  48994-3 0  9991
2 42992  97.4390 199.6136 0003552 126.2728 233.8842 15.32572793466176
SKYSAT-C12              
1 43797U 18099AR  26062.60754222  .00021765  00000+0  45727-3 0  9999
2 43797  96.9378  90.2845 0004874 154.0590 206.0905 15.45340085405533
SKYSAT-C13              
1 43802U 18099AW  26062.95097360  .00103915  00000+0  67790-3 0  9999
2 43802  96.9415 110.5776 0003421 221.6959 138.4047 15.75564682406268
FLOCK 4Q-16             
1 58271U 23174R   26062.79543005  .00032022  00000+0  69230-3 0  9990
2 58271  97.3875 148.8271 0007923 176.7959 183.3342 15.44404847129287
